GECAM-B                 
1 47235U 20094B   26058.19405615  .00003224  00000+0  23073-3 0  9996
2 47235  28.9982  10.8844 0010635 257.2071 102.7339 15.01652363285175
STARLINK-4452           
1 53658U 22105L   26068.63068760  .00000353  00000+0  28692-4 0  9996
2 53658  97.6030 311.2055 0002377  93.3957 266.7541 15.05649839193291
