[{"OBJECT_NAME":"GECAM-B","OBJECT_ID":"2020-094B","EPOCH":"2026-02-27T04:39:26.451360","MEAN_MOTION":15.01652363,"ECCENTRICITY":0.0010635,"INCLINATION":28.9982,"RA_OF_ASC_NODE":10.8844,"ARG_OF_PERICENTER":257.2071,"MEAN_ANOMALY":102.7339,"EPHEMERIS_TYPE":0,"CLASSIFICATION_TYPE":"U","NORAD_CAT_ID":47235,"ELEMENT_SET_NO":999,"REV_AT_EPOCH":28517,"BSTAR":0.00023073,"MEAN_MOTION_DOT":3.224e-5,"MEAN_MOTION_DDOT":0},{"OBJECT_NAME":"STARLINK-4452","OBJECT_ID":"2022-105L","EPOCH":"2026-03-09T15:08:11.408640","MEAN_MOTION":15.05649839,"ECCENTRICITY":0.0002377,"INCLINATION":97.603,"RA_OF_ASC_NODE":311.2055,"ARG_OF_PERICENTER":93.3957,"MEAN_ANOMALY":266.7541,"EPHEMERIS_TYPE":0,"CLASSIFICATION_TYPE":"U","NORAD_CAT_ID":53658,"ELEMENT_SET_NO":999,"REV_AT_EPOCH":19329,"BSTAR":2.8692e-5,"MEAN_MOTION_DOT":3.53e-6,"MEAN_MOTION_DDOT":0}]
